0 FENGYUN 1C DEB
1 30603U 99025AMJ 13281.21030131  .00000797  00000-0  77572-3 0  5847
2 30603 098.4694 011.5214 0199623 007.1523 012.6646 13.73562294337028
0 FENGYUN 1C DEB
1 30603U 99025AMJ 13284.19868111  .00000939  00000-0  90782-3 0  5851
2 30603 098.4699 014.1708 0199531 359.0387 029.7948 13.73569112337430
0 FENGYUN 1C DEB
1 30603U 99025AMJ 13285.22572365  .00000874  00000-0  84691-3 0  5860
2 30603 098.4700 015.0814 0199506 356.2609 068.3853 13.73570821337577
0 FENGYUN 1C DEB
1 30603U 99025AMJ 13286.70267054  .00000995  00000-0  96043-3 0  5879
2 30603 098.4700 016.3911 0199473 352.2759 171.6972 13.73572945337775
0 FENGYUN 1C DEB
1 30603U 99025AMJ 13287.72036361  .00001241  00000-0  11883-2 0  5881
2 30603 098.4698 017.2937 0199457 349.5178 164.0755 13.73575712337911
0 FENGYUN 1C DEB
1 30603U 99025AMJ 13291.19133822  .00001114  00000-0  10704-2 0  5898
2 30603 098.4692 020.3716 0199455 340.1059 047.7341 13.73583550338398
0 FENGYUN 1C DEB
1 30603U 99025AMJ 13292.21104473  .00001170  00000-0  11227-2 0  5907
2 30603 098.4689 021.2756 0199464 337.3392 050.1128 13.73585509338539
0 FENGYUN 1C DEB
1 30603U 99025AMJ 13293.23605953  .00001219  00000-0  11681-2 0  5918
2 30603 098.4689 022.1846 0199501 334.5426 078.7625 13.73587679338671
0 FENGYUN 1C DEB
1 30603U 99025AMJ 13294.25776868  .00001217  00000-0  11667-2 0  5928
2 30603 098.4690 023.0906 0199518 331.7735 091.0560 13.73590666338812
